start=new Date('%Y-%m-41T00:00:00.000Z').valueOf();
sats=[{"MEAN_MOTION_DDOT":"0.0000000000000","EPHEMERIS_TYPE":"0","TLE_LINE2":"2 45390  53.0557  47.3056 0001796 104.2669 255.8520 15.06399028 79516","EPOCH":"2021-08-20T18:18:29.696544","PERIOD":"95.592","ELEMENT_SET_NO":"999","MEAN_MOTION":"15.06399028","OBJECT_NAME":"STARLINK-1284","MEAN_MOTION_DOT":"-0.00000363","NORAD_CAT_ID":"45390","COUNTRY_CODE":"US","RCS_SIZE":"LARGE","LAUNCH_DATE":"2020-03-18","REV_AT_EPOCH":"7951","MEAN_ELEMENT_THEORY":"SGP4","PERIAPSIS":"545.973","REF_FRAME":"TEME","SITE":"AFETR","INCLINATION":"53.0557","MEAN_ANOMALY":"255.8520","APOAPSIS":"548.460","ARG_OF_PERICENTER":"104.2669","GP_ID":"183153073","DECAY_DATE":null,"OBJECT_ID":"2020-019AG","FILE":"3100512","ECCENTRICITY":"0.00017960","OBJECT_TYPE":"PAYLOAD","RA_OF_ASC_NODE":"47.3056","CENTER_NAME":"EARTH","CLASSIFICATION_TYPE":"U","SEMIMAJOR_AXIS":"6925.352","TLE_LINE1":"1 45390U 20019AG  21232.76284371 -.00000363  00000-0 -54827-5 0  9996","TIME_SYSTEM":"UTC","BSTAR":"-0.00000548270000"},{"INCLINATION":"53.0556","MEAN_ANOMALY":"264.4038","REF_FRAME":"TEME","SITE":"AFETR","PERIAPSIS":"545.977","RCS_SIZE":"LARGE","COUNTRY_CODE":"US","MEAN_ELEMENT_THEORY":"SGP4","LAUNCH_DATE":"2020-03-18","REV_AT_EPOCH":"7924","NORAD_CAT_ID":"45391","MEAN_MOTION_DOT":"0.00000298","MEAN_MOTION":"15.06393238","OBJECT_NAME":"STARLINK-1289","PERIOD":"95.593","ELEMENT_SET_NO":"999","EPOCH":"2021-08-20T18:39:45.514368","MEAN_MOTION_DDOT":"0.0000000000000","TLE_LINE2":"2 45391  53.0556  47.2355 0001815  95.7158 264.4038 15.06393238 79243","EPHEMERIS_TYPE":"0","BSTAR":"0.00003893800000","TLE_LINE1":"1 45391U 20019AH  21232.77761012  .00000298  00000-0  38938-4 0  9999","TIME_SYSTEM":"UTC","SEMIMAJOR_AXIS":"6925.369","CLASSIFICATION_TYPE":"U","RA_OF_ASC_NODE":"47.2355","CENTER_NAME":"EARTH","OBJECT_TYPE":"PAYLOAD","ECCENTRICITY":"0.00018150","FILE":"3100512","DECAY_DATE":null,"OBJECT_ID":"2020-019AH","GP_ID":"183154325","ARG_OF_PERICENTER":"95.7158","APOAPSIS":"548.491"},{"NORAD_CAT_ID":"45392","RCS_SIZE":"LARGE","COUNTRY_CODE":"US","LAUNCH_DATE":"2020-03-18","MEAN_ELEMENT_THEORY":"SGP4","REV_AT_EPOCH":"7925","PERIAPSIS":"542.556","SITE":"AFETR","REF_FRAME":"TEME","INCLINATION":"52.9946","MEAN_ANOMALY":"248.1610","MEAN_MOTION_DDOT":"0.0000000000000","TLE_LINE2":"2 45392  52.9946  44.8819 0002500 111.9644 248.1610 15.07355571 79251","EPHEMERIS_TYPE":"0","EPOCH":"2021-08-20T19:10:45.078240","PERIOD":"95.532","ELEMENT_SET_NO":"999","MEAN_MOTION":"15.07355571","OBJECT_NAME":"STARLINK-1290","MEAN_MOTION_DOT":"0.00001642","ECCENTRICITY":"0.00025000","OBJECT_TYPE":"PAYLOAD","RA_OF_ASC_NODE":"44.8819","CENTER_NAME":"EARTH","CLASSIFICATION_TYPE":"U","SEMIMAJOR_AXIS":"6922.421","TIME_SYSTEM":"UTC","TLE_LINE1":"1 45392U 20019AJ  21232.79913285  .00001642  00000-0  12599-3 0  9991","BSTAR":"0.00012599000000","APOAPSIS":"546.017","ARG_OF_PERICENTER":"111.9644","GP_ID":"183154075","DECAY_DATE":null,"OBJECT_ID":"2020-019AJ","FILE":"3100512"},{"EPHEMERIS_TYPE":"0","TLE_LINE2":"2 45393  53.0547  47.1125 0001948  95.0093 265.1118 15.06396782 79285","MEAN_MOTION_DDOT":"0.0000000000000","EPOCH":"2021-08-20T19:22:11.618688","ELEMENT_SET_NO":"999","PERIOD":"95.592","MEAN_MOTION":"15.06396782","OBJECT_NAME":"STARLINK-1291","MEAN_MOTION_DOT":"-0.00000797","NORAD_CAT_ID":"45393","LAUNCH_DATE":"2020-03-18","MEAN_ELEMENT_THEORY":"SGP4","REV_AT_EPOCH":"7928","RCS_SIZE":"LARGE","COUNTRY_CODE":"US","PERIAPSIS":"545.874","REF_FRAME":"TEME","SITE":"AFETR","MEAN_ANOMALY":"265.1118","INCLINATION":"53.0547","APOAPSIS":"548.572","ARG_OF_PERICENTER":"95.0093","GP_ID":"183153324","OBJECT_ID":"2020-019AK","DECAY_DATE":null,"FILE":"3100512","ECCENTRICITY":"0.00019480","OBJECT_TYPE":"PAYLOAD","CENTER_NAME":"EARTH","RA_OF_ASC_NODE":"47.1125","CLASSIFICATION_TYPE":"U","SEMIMAJOR_AXIS":"6925.358","TIME_SYSTEM":"UTC","TLE_LINE1":"1 45393U 20019AK  21232.80707892 -.00000797  00000-0 -34596-4 0  9993","BSTAR":"-0.00003459600000"},{"MEAN_MOTION_DOT":"-0.00001305","MEAN_MOTION":"15.06393935","OBJECT_NAME":"STARLINK-1292","PERIOD":"95.593","ELEMENT_SET_NO":"999","EPOCH":"2021-08-20T18:29:06.581184","MEAN_MOTION_DDOT":"0.0000000000000","EPHEMERIS_TYPE":"0","TLE_LINE2":"2 45394  53.0552  47.2741 0001775  97.3809 262.7382 15.06393935 79255","INCLINATION":"53.0552","MEAN_ANOMALY":"262.7382","SITE":"AFETR","REF_FRAME":"TEME","PERIAPSIS":"546.003","COUNTRY_CODE":"US","RCS_SIZE":"LARGE","REV_AT_EPOCH":"7925","LAUNCH_DATE":"2020-03-18","MEAN_ELEMENT_THEORY":"SGP4","NORAD_CAT_ID":"45394","FILE":"3100512","DECAY_DATE":null,"OBJECT_ID":"2020-019AL","GP_ID":"183153574","ARG_OF_PERICENTER":"97.3809","APOAPSIS":"548.461","BSTAR":"-0.00006871800000","TIME_SYSTEM":"UTC","TLE_LINE1":"1 45394U 20019AL  21232.77021506 -.00001305  00000-0 -68718-4 0  9990","SEMIMAJOR_AXIS":"6925.367","CLASSIFICATION_TYPE":"U","RA_OF_ASC_NODE":"47.2741","CENTER_NAME":"EARTH","OBJECT_TYPE":"PAYLOAD","ECCENTRICITY":"0.00017750"},{"MEAN_MOTION_DDOT":"0.0000000000000","EPHEMERIS_TYPE":"0","TLE_LINE2":"2 45395  53.0560  48.0375 0002023 107.2584 252.8626 15.06403599 78679","EPOCH":"2021-08-20T14:24:57.512160","MEAN_MOTION":"15.06403599","OBJECT_NAME":"STARLINK-1297","PERIOD":"95.592","ELEMENT_SET_NO":"999","MEAN_MOTION_DOT":"0.00001009","NORAD_CAT_ID":"45395","COUNTRY_CODE":"US","RCS_SIZE":"LARGE","MEAN_ELEMENT_THEORY":"SGP4","LAUNCH_DATE":"2020-03-18","REV_AT_EPOCH":"7867","REF_FRAME":"TEME","SITE":"AFETR","PERIAPSIS":"545.802","INCLINATION":"53.0560","MEAN_ANOMALY":"252.8626","ARG_OF_PERICENTER":"107.2584","APOAPSIS":"548.604","GP_ID":"183153825","FILE":"3100512","DECAY_DATE":null,"OBJECT_ID":"2020-019AM","OBJECT_TYPE":"PAYLOAD","ECCENTRICITY":"0.00020230","CLASSIFICATION_TYPE":"U","RA_OF_ASC_NODE":"48.0375","CENTER_NAME":"EARTH","SEMIMAJOR_AXIS":"6925.338","BSTAR":"0.00008663700000","TIME_SYSTEM":"UTC","TLE_LINE1":"1 45395U 20019AM  21232.60066565  .00001009  00000-0  86637-4 0  9996"},{"ARG_OF_PERICENTER":"102.0531","APOAPSIS":"548.526","GP_ID":"183154576","FILE":"3100512","DECAY_DATE":null,"OBJECT_ID":"2020-019AN","OBJECT_TYPE":"PAYLOAD","ECCENTRICITY":"0.00018910","CLASSIFICATION_TYPE":"U","RA_OF_ASC_NODE":"47.2264","CENTER_NAME":"EARTH","SEMIMAJOR_AXIS":"6925.351","BSTAR":"0.00006248600000","TLE_LINE1":"1 45396U 20019AN  21232.78127359  .00000649  00000-0  62486-4 0  9990","TIME_SYSTEM":"UTC","MEAN_MOTION_DDOT":"0.0000000000000","TLE_LINE2":"2 45396  53.0546  47.2264 0001891 102.0531 258.0670 15.06399118 79230","EPHEMERIS_TYPE":"0","EPOCH":"2021-08-20T18:45:02.038176","OBJECT_NAME":"STARLINK-1303","MEAN_MOTION":"15.06399118","PERIOD":"95.592","ELEMENT_SET_NO":"999","MEAN_MOTION_DOT":"0.00000649","NORAD_CAT_ID":"45396","RCS_SIZE":"LARGE","COUNTRY_CODE":"US","MEAN_ELEMENT_THEORY":"SGP4","LAUNCH_DATE":"2020-03-18","REV_AT_EPOCH":"7923","SITE":"AFETR","REF_FRAME":"TEME","PERIAPSIS":"545.907","INCLINATION":"53.0546","MEAN_ANOMALY":"258.0670"},{"TLE_LINE1":"1 45397U 20019AP  21232.79233614  .00000472  00000-0  50590-4 0  9991","TIME_SYSTEM":"UTC","BSTAR":"0.00005059000000","SEMIMAJOR_AXIS":"6925.377","CENTER_NAME":"EARTH","RA_OF_ASC_NODE":"47.1790","CLASSIFICATION_TYPE":"U","ECCENTRICITY":"0.00015990","OBJECT_TYPE":"PAYLOAD","OBJECT_ID":"2020-019AP","DECAY_DATE":null,"FILE":"3100512","GP_ID":"183152824","APOAPSIS":"548.350","ARG_OF_PERICENTER":"105.6402","MEAN_ANOMALY":"254.4763","INCLINATION":"53.0546","PERIAPSIS":"546.135","SITE":"AFETR","REF_FRAME":"TEME","MEAN_ELEMENT_THEORY":"SGP4","LAUNCH_DATE":"2020-03-18","REV_AT_EPOCH":"7934","RCS_SIZE":"LARGE","COUNTRY_CODE":"US","NORAD_CAT_ID":"45397","MEAN_MOTION_DOT":"0.00000472","ELEMENT_SET_NO":"999","PERIOD":"95.593","MEAN_MOTION":"15.06390564","OBJECT_NAME":"STARLINK-1307","EPOCH":"2021-08-20T19:00:57.842496","TLE_LINE2":"2 45397  53.0546  47.1790 0001599 105.6402 254.4763 15.06390564 79346","EPHEMERIS_TYPE":"0","MEAN_MOTION_DDOT":"0.0000000000000"},{"BSTAR":"0.00008308100000","TLE_LINE1":"1 45398U 20019AQ  21232.78495748  .00000956  00000-0  83081-4 0  9997","TIME_SYSTEM":"UTC","SEMIMAJOR_AXIS":"6925.361","CLASSIFICATION_TYPE":"U","CENTER_NAME":"EARTH","RA_OF_ASC_NODE":"47.2080","OBJECT_TYPE":"PAYLOAD","ECCENTRICITY":"0.00016950","FILE":"3100512","OBJECT_ID":"2020-019AQ","DECAY_DATE":null,"GP_ID":"183153074","ARG_OF_PERICENTER":"99.1222","APOAPSIS":"548.400","MEAN_ANOMALY":"260.9959","INCLINATION":"53.0565","SITE":"AFETR","REF_FRAME":"TEME","PERIAPSIS":"546.053","MEAN_ELEMENT_THEORY":"SGP4","LAUNCH_DATE":"2020-03-18","REV_AT_EPOCH":"7927","RCS_SIZE":"LARGE","COUNTRY_CODE":"US","NORAD_CAT_ID":"45398","MEAN_MOTION_DOT":"0.00000956","MEAN_MOTION":"15.06395798","OBJECT_NAME":"STARLINK-1312","ELEMENT_SET_NO":"999","PERIOD":"95.592","EPOCH":"2021-08-20T18:50:20.326272","EPHEMERIS_TYPE":"0","TLE_LINE2":"2 45398  53.0565  47.2080 0001695  99.1222 260.9959 15.06395798 79270","MEAN_MOTION_DDOT":"0.0000000000000"},{"MEAN_MOTION_DOT":"-0.00000385","OBJECT_NAME":"STARLINK-1255","MEAN_MOTION":"15.06403085","ELEMENT_SET_NO":"999","PERIOD":"95.592","EPOCH":"2021-08-20T23:01:07.626720","EPHEMERIS_TYPE":"0","TLE_LINE2":"2 45399  53.0548  36.4285 0001315  93.3053 266.8087 15.06403085 79496","MEAN_MOTION_DDOT":"0.0000000000000","MEAN_ANOMALY":"266.8087","INCLINATION":"53.0548","REF_FRAME":"TEME","SITE":"AFETR","PERIAPSIS":"546.293","REV_AT_EPOCH":"7949","LAUNCH_DATE":"2020-03-18","MEAN_ELEMENT_THEORY":"SGP4","RCS_SIZE":"LARGE","COUNTRY_CODE":"US","NORAD_CAT_ID":"45399","FILE":"3100689","OBJECT_ID":"2020-019AR","DECAY_DATE":null,"GP_ID":"183161265","ARG_OF_PERICENTER":"93.3053","APOAPSIS":"548.115","BSTAR":"-0.00000692150000","TLE_LINE1":"1 45399U 20019AR  21232.95911605 -.00000385  00000-0 -69215-5 0  9994","TIME_SYSTEM":"UTC","SEMIMAJOR_AXIS":"6925.339","CLASSIFICATION_TYPE":"U","CENTER_NAME":"EARTH","RA_OF_ASC_NODE":"36.4285","OBJECT_TYPE":"PAYLOAD","ECCENTRICITY":"0.00013150"}];
